[{"OBJECT_NAME":"ONEWEB-0284","OBJECT_ID":"2021-060AM","EPOCH":"2026-02-08T02:41:32.107488","MEAN_MOTION":13.16594654,"ECCENTRICITY":0.00017711,"INCLINATION":87.9002,"RA_OF_ASC_NODE":254.4649,"ARG_OF_PERICENTER":99.0712,"MEAN_ANOMALY":261.062,"EPHEMERIS_TYPE":0,"CLASSIFICATION_TYPE":"U","NORAD_CAT_ID":49002,"ELEMENT_SET_NO":999,"REV_AT_EPOCH":22261,"BSTAR":3.8472162e-5,"MEAN_MOTION_DOT":2.8e-7,"MEAN_MOTION_DDOT":0},{"OBJECT_NAME":"ONEWEB-0285","OBJECT_ID":"2021-075A","EPOCH":"2026-02-07T23:46:40.801728","MEAN_MOTION":13.12444021,"ECCENTRICITY":0.00017936,"INCLINATION":87.896,"RA_OF_ASC_NODE":16.3028,"ARG_OF_PERICENTER":86.0589,"MEAN_ANOMALY":274.0745,"EPHEMERIS_TYPE":0,"CLASSIFICATION_TYPE":"U","NORAD_CAT_ID":49075,"ELEMENT_SET_NO":999,"REV_AT_EPOCH":21826,"BSTAR":0.00089681256,"MEAN_MOTION_DOT":3.35e-6,"MEAN_MOTION_DDOT":0},{"OBJECT_NAME":"ONEWEB-0286","OBJECT_ID":"2021-075B","EPOCH":"2026-02-07T23:20:51.213408","MEAN_MOTION":13.12441827,"ECCENTRICITY":0.0002005,"INCLINATION":87.8948,"RA_OF_ASC_NODE":16.3361,"ARG_OF_PERICENTER":80.2536,"MEAN_ANOMALY":279.8819,"EPHEMERIS_TYPE":0,"CLASSIFICATION_TYPE":"U","NORAD_CAT_ID":49076,"ELEMENT_SET_NO":999,"REV_AT_EPOCH":21761,"BSTAR":-0.00038363,"MEAN_MOTION_DOT":-1.25e-6,"MEAN_MOTION_DDOT":0},{"OBJECT_NAME":"ONEWEB-0287","OBJECT_ID":"2021-075C","EPOCH":"2026-02-07T23:58:54.882912","MEAN_MOTION":13.17649707,"ECCENTRICITY":0.00022723,"INCLINATION":87.9103,"RA_OF_ASC_NODE":31.5316,"ARG_OF_PERICENTER":82.2597,"MEAN_ANOMALY":277.8792,"EPHEMERIS_TYPE":0,"CLASSIFICATION_TYPE":"U","NORAD_CAT_ID":49077,"ELEMENT_SET_NO":999,"REV_AT_EPOCH":21661,"BSTAR":-7.3108417e-5,"MEAN_MOTION_DOT":-1.5e-7,"MEAN_MOTION_DDOT":0},{"OBJECT_NAME":"ONEWEB-0288","OBJECT_ID":"2021-075D","EPOCH":"2026-02-07T22:46:54.178752","MEAN_MOTION":13.12441757,"ECCENTRICITY":0.0001933,"INCLINATION":87.8958,"RA_OF_ASC_NODE":16.3057,"ARG_OF_PERICENTER":86.4329,"MEAN_ANOMALY":273.7021,"EPHEMERIS_TYPE":0,"CLASSIFICATION_TYPE":"U","NORAD_CAT_ID":49078,"ELEMENT_SET_NO":999,"REV_AT_EPOCH":21823,"BSTAR":-0.00065376,"MEAN_MOTION_DOT":-2.22e-6,"MEAN_MOTION_DDOT":0},{"OBJECT_NAME":"ONEWEB-0289","OBJECT_ID":"2021-075E","EPOCH":"2026-02-08T00:54:35.358336","MEAN_MOTION":13.17649209,"ECCENTRICITY":0.00019807,"INCLINATION":87.9102,"RA_OF_ASC_NODE":31.5352,"ARG_OF_PERICENTER":101.6785,"MEAN_ANOMALY":258.4569,"EPHEMERIS_TYPE":0,"CLASSIFICATION_TYPE":"U","NORAD_CAT_ID":49079,"ELEMENT_SET_NO":999,"REV_AT_EPOCH":21719,"BSTAR":9.004214e-6,"MEAN_MOTION_DOT":1.6e-7,"MEAN_MOTION_DDOT":0},{"OBJECT_NAME":"ONEWEB-0290","OBJECT_ID":"2021-075F","EPOCH":"2026-02-07T22:26:32.114688","MEAN_MOTION":13.1764744,"ECCENTRICITY":0.0001784,"INCLINATION":87.9109,"RA_OF_ASC_NODE":31.522,"ARG_OF_PERICENTER":106.0968,"MEAN_ANOMALY":254.036,"EPHEMERIS_TYPE":0,"CLASSIFICATION_TYPE":"U","NORAD_CAT_ID":49080,"ELEMENT_SET_NO":999,"REV_AT_EPOCH":21659,"BSTAR":-0.00047624,"MEAN_MOTION_DOT":-1.72e-6,"MEAN_MOTION_DDOT":0},{"OBJECT_NAME":"ONEWEB-0291","OBJECT_ID":"2021-075G","EPOCH":"2026-02-07T23:54:01.674144","MEAN_MOTION":13.17648594,"ECCENTRICITY":0.00022656,"INCLINATION":87.9111,"RA_OF_ASC_NODE":31.5182,"ARG_OF_PERICENTER":89.65,"MEAN_ANOMALY":270.4891,"EPHEMERIS_TYPE":0,"CLASSIFICATION_TYPE":"U","NORAD_CAT_ID":49081,"ELEMENT_SET_NO":999,"REV_AT_EPOCH":21659,"BSTAR":9.9149497e-5,"MEAN_MOTION_DOT":5.1e-7,"MEAN_MOTION_DDOT":0},{"OBJECT_NAME":"ONEWEB-0293","OBJECT_ID":"2021-075H","EPOCH":"2026-02-08T00:30:28.560960","MEAN_MOTION":13.17647246,"ECCENTRICITY":0.00019246,"INCLINATION":87.9099,"RA_OF_ASC_NODE":31.5271,"ARG_OF_PERICENTER":91.781,"MEAN_ANOMALY":268.3542,"EPHEMERIS_TYPE":0,"CLASSIFICATION_TYPE":"U","NORAD_CAT_ID":49082,"ELEMENT_SET_NO":999,"REV_AT_EPOCH":21662,"BSTAR":-3.8216752e-5,"MEAN_MOTION_DOT":-2.0e-8,"MEAN_MOTION_DDOT":0},{"OBJECT_NAME":"ONEWEB-0294","OBJECT_ID":"2021-075J","EPOCH":"2026-02-07T22:56:38.849280","MEAN_MOTION":13.12442484,"ECCENTRICITY":0.0001907,"INCLINATION":87.8954,"RA_OF_ASC_NODE":16.3067,"ARG_OF_PERICENTER":94.9811,"MEAN_ANOMALY":265.1535,"EPHEMERIS_TYPE":0,"CLASSIFICATION_TYPE":"U","NORAD_CAT_ID":49083,"ELEMENT_SET_NO":999,"REV_AT_EPOCH":21762,"BSTAR":-0.0011199,"MEAN_MOTION_DOT":-3.9e-6,"MEAN_MOTION_DDOT":0},{"OBJECT_NAME":"ONEWEB-0295","OBJECT_ID":"2021-075K","EPOCH":"2026-02-08T00:29:16.936224","MEAN_MOTION":13.17647984,"ECCENTRICITY":0.00022245,"INCLINATION":87.9099,"RA_OF_ASC_NODE":31.532,"ARG_OF_PERICENTER":87.1575,"MEAN_ANOMALY":272.9811,"EPHEMERIS_TYPE":0,"CLASSIFICATION_TYPE":"U","NORAD_CAT_ID":49084,"ELEMENT_SET_NO":999,"REV_AT_EPOCH":21658,"BSTAR":-6.1523085e-5,"MEAN_MOTION_DOT":-1.1e-7,"MEAN_MOTION_DDOT":0},{"OBJECT_NAME":"ONEWEB-0296","OBJECT_ID":"2021-075L","EPOCH":"2026-02-07T22:27:23.450976","MEAN_MOTION":13.12441779,"ECCENTRICITY":0.0002182,"INCLINATION":87.8958,"RA_OF_ASC_NODE":16.3137,"ARG_OF_PERICENTER":86.0646,"MEAN_ANOMALY":274.0732,"EPHEMERIS_TYPE":0,"CLASSIFICATION_TYPE":"U","NORAD_CAT_ID":49085,"ELEMENT_SET_NO":999,"REV_AT_EPOCH":21762,"BSTAR":0.00049245,"MEAN_MOTION_DOT":1.9e-6,"MEAN_MOTION_DDOT":0},{"OBJECT_NAME":"ONEWEB-0297","OBJECT_ID":"2021-075M","EPOCH":"2026-02-07T23:11:17.573568","MEAN_MOTION":13.12442657,"ECCENTRICITY":0.00019491,"INCLINATION":87.8946,"RA_OF_ASC_NODE":16.3354,"ARG_OF_PERICENTER":82.1373,"MEAN_ANOMALY":277.9976,"EPHEMERIS_TYPE":0,"CLASSIFICATION_TYPE":"U","NORAD_CAT_ID":49086,"ELEMENT_SET_NO":999,"REV_AT_EPOCH":21823,"BSTAR":-0.0008698476,"MEAN_MOTION_DOT":-3.0e-6,"MEAN_MOTION_DDOT":0},{"OBJECT_NAME":"ONEWEB-0298","OBJECT_ID":"2021-075N","EPOCH":"2026-02-08T00:35:33.393984","MEAN_MOTION":13.17647354,"ECCENTRICITY":0.0001855,"INCLINATION":87.9098,"RA_OF_ASC_NODE":31.5277,"ARG_OF_PERICENTER":83.4763,"MEAN_ANOMALY":276.658,"EPHEMERIS_TYPE":0,"CLASSIFICATION_TYPE":"U","NORAD_CAT_ID":49087,"ELEMENT_SET_NO":999,"REV_AT_EPOCH":21661,"BSTAR":-4.4481544e-5,"MEAN_MOTION_DOT":-4.0e-8,"MEAN_MOTION_DDOT":0},{"OBJECT_NAME":"ONEWEB-0299","OBJECT_ID":"2021-075P","EPOCH":"2026-02-08T00:37:45.966144","MEAN_MOTION":13.17647671,"ECCENTRICITY":0.00019997,"INCLINATION":87.9111,"RA_OF_ASC_NODE":31.4948,"ARG_OF_PERICENTER":84.9895,"MEAN_ANOMALY":275.1465,"EPHEMERIS_TYPE":0,"CLASSIFICATION_TYPE":"U","NORAD_CAT_ID":49088,"ELEMENT_SET_NO":999,"REV_AT_EPOCH":21659,"BSTAR":-9.4306481e-5,"MEAN_MOTION_DOT":-2.4e-7,"MEAN_MOTION_DDOT":0},{"OBJECT_NAME":"ONEWEB-0300","OBJECT_ID":"2021-075Q","EPOCH":"2026-02-07T23:00:18.403776","MEAN_MOTION":13.12441252,"ECCENTRICITY":0.0001762,"INCLINATION":87.8957,"RA_OF_ASC_NODE":16.3027,"ARG_OF_PERICENTER":73.3286,"MEAN_ANOMALY":286.8035,"EPHEMERIS_TYPE":0,"CLASSIFICATION_TYPE":"U","NORAD_CAT_ID":49089,"ELEMENT_SET_NO":999,"REV_AT_EPOCH":21825,"BSTAR":-0.0010942,"MEAN_MOTION_DOT":-3.81e-6,"MEAN_MOTION_DDOT":0},{"OBJECT_NAME":"ONEWEB-0301","OBJECT_ID":"2021-075R","EPOCH":"2026-02-07T22:37:08.549184","MEAN_MOTION":13.12441567,"ECCENTRICITY":0.000164,"INCLINATION":87.8958,"RA_OF_ASC_NODE":16.3064,"ARG_OF_PERICENTER":71.2347,"MEAN_ANOMALY":288.8959,"EPHEMERIS_TYPE":0,"CLASSIFICATION_TYPE":"U","NORAD_CAT_ID":49090,"ELEMENT_SET_NO":999,"REV_AT_EPOCH":21761,"BSTAR":-0.00015454,"MEAN_MOTION_DOT":-4.3e-7,"MEAN_MOTION_DDOT":0}]
