ONEWEB-0284             
1 49002U 21060AM  26039.11217717  .00000028  00000+0  38472-4 0  9998
2 49002  87.9002 254.4649 0001771  99.0712 261.0620 13.16594654222615
ONEWEB-0285             
1 49075U 21075A   26038.99075002  .00000335  00000+0  89681-3 0  9996
2 49075  87.8960  16.3028 0001793  86.0589 274.0745 13.12444021218261
ONEWEB-0286             
1 49076U 21075B   26038.97281497 -.00000125  00000+0 -38363-3 0  9992
2 49076  87.8948  16.3361 0002005  80.2536 279.8819 13.12441827217617
ONEWEB-0287             
1 49077U 21075C   26038.99924633 -.00000015  00000+0 -73108-4 0  9996
2 49077  87.9103  31.5316 0002272  82.2597 277.8792 13.17649707216615
ONEWEB-0288             
1 49078U 21075D   26038.94923818 -.00000222  00000+0 -65376-3 0  9993
2 49078  87.8958  16.3057 0001933  86.4329 273.7021 13.12441757218238
ONEWEB-0289             
1 49079U 21075E   26039.03790924  .00000016  00000+0  90042-5 0  9994
2 49079  87.9102  31.5352 0001980 101.6785 258.4569 13.17649209217194
ONEWEB-0290             
1 49080U 21075F   26038.93509392 -.00000172  00000+0 -47624-3 0  9992
2 49080  87.9109  31.5220 0001784 106.0968 254.0360 13.17647440216590
ONEWEB-0291             
1 49081U 21075G   26038.99585271  .00000051  00000+0  99149-4 0  9993
2 49081  87.9111  31.5182 0002265  89.6500 270.4891 13.17648594216596
ONEWEB-0293             
1 49082U 21075H   26039.02116390 -.00000002  00000+0 -38217-4 0  9998
2 49082  87.9099  31.5271 0001924  91.7810 268.3542 13.17647246216626
ONEWEB-0294             
1 49083U 21075J   26038.95600520 -.00000390  00000+0 -11199-2 0  9991
2 49083  87.8954  16.3067 0001907  94.9811 265.1535 13.12442484217627
ONEWEB-0295             
1 49084U 21075K   26039.02033491 -.00000011  00000+0 -61523-4 0  9996
2 49084  87.9099  31.5320 0002224  87.1575 272.9811 13.17647984216588
ONEWEB-0296             
1 49085U 21075L   26038.93568809  .00000190  00000+0  49245-3 0  9994
2 49085  87.8958  16.3137 0002182  86.0646 274.0732 13.12441779217629
ONEWEB-0297             
1 49086U 21075M   26038.96617562 -.00000300  00000+0 -86985-3 0  9996
2 49086  87.8946  16.3354 0001949  82.1373 277.9976 13.12442657218238
ONEWEB-0298             
1 49087U 21075N   26039.02469206 -.00000004  00000+0 -44482-4 0  9993
2 49087  87.9098  31.5277 0001855  83.4763 276.6580 13.17647354216617
ONEWEB-0299             
1 49088U 21075P   26039.02622646 -.00000024  00000+0 -94306-4 0  9995
2 49088  87.9111  31.4948 0001999  84.9895 275.1465 13.17647671216594
ONEWEB-0300             
1 49089U 21075Q   26038.95854634 -.00000381  00000+0 -10942-2 0  9999
2 49089  87.8957  16.3027 0001762  73.3286 286.8035 13.12441252218255
ONEWEB-0301             
1 49090U 21075R   26038.94246006 -.00000043  00000+0 -15454-3 0  9997
2 49090  87.8958  16.3064 0001640  71.2347 288.8959 13.12441567217614
